{"type": "FeatureCollection", "features": [ {"type": "Feature", "properties": {"norad_id": 34823, "name": "COSMOS 2251 DEB", "group": "cosmos-2251-debris", "lat": 69.147509467106, "lon": -146.75133782507538, "alt_km": 647.249108959556, "timestamp": "2025-12-23T11:34:48.555767+00:00", "meta": {"OBJECT_NAME": "COSMOS 2251 DEB", "OBJECT_ID": "1993-036ABN", "EPOCH": "2025-12-22T23:32:59.618112", "MEAN_MOTION": 14.54990022, "ECCENTRICITY": 0.0153991, "INCLINATION": 74.0418, "RA_OF_ASC_NODE": 82.8922, "ARG_OF_PERICENTER": 165.1039, "MEAN_ANOMALY": 195.4739, "EPHEMERIS_TYPE": 0, "CLASSIFICATION_TYPE": "U", "NORAD_CAT_ID": 34823, "ELEMENT_SET_NO": 999, "REV_AT_EPOCH": 88530, "BSTAR": 0.00056766, "MEAN_MOTION_DOT": 2.835e-05, "MEAN_MOTION_DDOT": 0}, "tle": {"line1": "1 34823U 93036ABN 25356.98124558  .00002835  00000+0  56766-3 0  9994", "line2": "2 34823  74.0418  82.8922 0153991 165.1039 195.4739 14.54990022885308"}}, "geometry": {"type": "Point", "coordinates": [-146.75133782507538, 69.147509467106]}}, {"type": "Feature", "properties": {"norad_id": 34845, "name": "COSMOS 2251 DEB", "group": "cosmos-2251-debris", "lat": 72.17580529465621, "lon": -168.7057138376616, "alt_km": 746.3911264922081, "timestamp": "2025-12-23T11:34:48.555777+00:00", "meta": {"OBJECT_NAME": "COSMOS 2251 DEB", "OBJECT_ID": "1993-036ABP", "EPOCH": "2025-12-19T17:31:51.884832", "MEAN_MOTION": 14.45872035, "ECCENTRICITY": 0.00225932, "INCLINATION": 74.0244, "RA_OF_ASC_NODE": 135.3011, "ARG_OF_PERICENTER": 295.1391, "MEAN_ANOMALY": 64.7423, "EPHEMERIS_TYPE": 0, "CLASSIFICATION_TYPE": "U", "NORAD_CAT_ID": 34845, "ELEMENT_SET_NO": 999, "REV_AT_EPOCH": 87567, "BSTAR": 0.00020260782, "MEAN_MOTION_DOT": 6.95e-06, "MEAN_MOTION_DDOT": 0}, "tle": {"line1": "1 34845U 93036ABP 25353.73046163  .00000695  00000+0  20261-3 0  9996", "line2": "2 34845  74.0244 135.3011 0022593 295.1391  64.7423 14.45872035875670"}}, "geometry": {"type": "Point", "coordinates": [-168.7057138376616, 72.17580529465621]}}, {"type": "Feature", "properties": {"norad_id": 34846, "name": "COSMOS 2251 DEB", "group": "cosmos-2251-debris", "lat": 67.86597023517815, "lon": -73.56305385675137, "alt_km": 739.0194567856015, "timestamp": "2025-12-23T11:34:48.555786+00:00", "meta": {"OBJECT_NAME": "COSMOS 2251 DEB", "OBJECT_ID": "1993-036ABQ", "EPOCH": "2025-12-22T20:18:23.821920", "MEAN_MOTION": 14.47267478, "ECCENTRICITY": 0.0026216, "INCLINATION": 74.0301, "RA_OF_ASC_NODE": 242.8755, "ARG_OF_PERICENTER": 308.0511, "MEAN_ANOMALY": 51.8282, "EPHEMERIS_TYPE": 0, "CLASSIFICATION_TYPE": "U", "NORAD_CAT_ID": 34846, "ELEMENT_SET_NO": 999, "REV_AT_EPOCH": 87550, "BSTAR": 0.00072003, "MEAN_MOTION_DOT": 2.618e-05, "MEAN_MOTION_DDOT": 0}, "tle": {"line1": "1 34846U 93036ABQ 25356.84610905  .00002618  00000+0  72003-3 0  9991", "line2": "2 34846  74.0301 242.8755 0026216 308.0511  51.8282 14.47267478875501"}}, "geometry": {"type": "Point", "coordinates": [-73.56305385675137, 67.86597023517815]}}, {"type": "Feature", "properties": {"norad_id": 34852, "name": "COSMOS 2251 DEB", "group": "cosmos-2251-debris", "lat": 68.19450189417773, "lon": 17.519439476332717, "alt_km": 767.4809076389784, "timestamp": "2025-12-23T11:34:48.555795+00:00", "meta": {"OBJECT_NAME": "COSMOS 2251 DEB", "OBJECT_ID": "1993-036ABW", "EPOCH": "2025-12-22T10:01:54.526080", "MEAN_MOTION": 14.37012127, "ECCENTRICITY": 0.00166159, "INCLINATION": 74.0324, "RA_OF_ASC_NODE": 245.1729, "ARG_OF_PERICENTER": 346.342, "MEAN_ANOMALY": 13.7281, "EPHEMERIS_TYPE": 0, "CLASSIFICATION_TYPE": "U", "NORAD_CAT_ID": 34852, "ELEMENT_SET_NO": 999, "REV_AT_EPOCH": 87673, "BSTAR": 0.00010888477, "MEAN_MOTION_DOT": 2.97e-06, "MEAN_MOTION_DDOT": 0}, "tle": {"line1": "1 34852U 93036ABW 25356.41799220  .00000297  00000+0  10888-3 0  9993", "line2": "2 34852  74.0324 245.1729 0016615 346.3420  13.7281 14.37012127876736"}}, "geometry": {"type": "Point", "coordinates": [17.519439476332717, 68.19450189417773]}}, {"type": "Feature", "properties": {"norad_id": 34854, "name": "COSMOS 2251 DEB", "group": "cosmos-2251-debris", "lat": 70.85190081552057, "lon": -98.0413731904371, "alt_km": 670.9272035397325, "timestamp": "2025-12-23T11:34:48.555804+00:00", "meta": {"OBJECT_NAME": "COSMOS 2251 DEB", "OBJECT_ID": "1993-036ABY", "EPOCH": "2025-12-23T02:59:29.308128", "MEAN_MOTION": 14.76722468, "ECCENTRICITY": 0.0065962, "INCLINATION": 74.0297, "RA_OF_ASC_NODE": 138.2247, "ARG_OF_PERICENTER": 247.8353, "MEAN_ANOMALY": 111.5813, "EPHEMERIS_TYPE": 0, "CLASSIFICATION_TYPE": "U", "NORAD_CAT_ID": 34854, "ELEMENT_SET_NO": 999, "REV_AT_EPOCH": 72035, "BSTAR": 0.00083387, "MEAN_MOTION_DOT": 6.022e-05, "MEAN_MOTION_DDOT": 0}, "tle": {"line1": "1 34854U 93036ABY 25357.12464477  .00006022  00000+0  83387-3 0  9993", "line2": "2 34854  74.0297 138.2247 0065962 247.8353 111.5813 14.76722468720356"}}, "geometry": {"type": "Point", "coordinates": [-98.0413731904371, 70.85190081552057]}}, {"type": "Feature", "properties": {"norad_id": 34856, "name": "COSMOS 2251 DEB", "group": "cosmos-2251-debris", "lat": -57.29636993862505, "lon": -90.69856076026893, "alt_km": 537.3315535114043, "timestamp": "2025-12-23T11:34:48.555813+00:00", "meta": {"OBJECT_NAME": "COSMOS 2251 DEB", "OBJECT_ID": "1993-036ACA", "EPOCH": "2025-12-22T22:32:30.098400", "MEAN_MOTION": 15.06548728, "ECCENTRICITY": 0.0031365, "INCLINATION": 73.9962, "RA_OF_ASC_NODE": 63.8671, "ARG_OF_PERICENTER": 199.9477, "MEAN_ANOMALY": 335.6172, "EPHEMERIS_TYPE": 0, "CLASSIFICATION_TYPE": "U", "NORAD_CAT_ID": 34856, "ELEMENT_SET_NO": 999, "REV_AT_EPOCH": 89265, "BSTAR": 0.0017113, "MEAN_MOTION_DOT": 0.00025654, "MEAN_MOTION_DDOT": 0}, "tle": {"line1": "1 34856U 93036ACA 25356.93923725  .00025654  00000+0  17113-2 0  9994", "line2": "2 34856  73.9962  63.8671 0031365 199.9477 335.6172 15.06548728892652"}}, "geometry": {"type": "Point", "coordinates": [-90.69856076026893, -57.29636993862505]}}, {"type": "Feature", "properties": {"norad_id": 34857, "name": "COSMOS 2251 DEB", "group": "cosmos-2251-debris", "lat": -38.05866811954872, "lon": -80.69318521998595, "alt_km": 657.0634879479348, "timestamp": "2025-12-23T11:34:48.555823+00:00", "meta": {"OBJECT_NAME": "COSMOS 2251 DEB", "OBJECT_ID": "1993-036ACB", "EPOCH": "2025-12-22T17:10:15.999744", "MEAN_MOTION": 14.58984962, "ECCENTRICITY": 0.00654116, "INCLINATION": 74.0156, "RA_OF_ASC_NODE": 87.8006, "ARG_OF_PERICENTER": 210.4107, "MEAN_ANOMALY": 302.1039, "EPHEMERIS_TYPE": 0, "CLASSIFICATION_TYPE": "U", "NORAD_CAT_ID": 34857, "ELEMENT_SET_NO": 999, "REV_AT_EPOCH": 88046, "BSTAR": 0.0010262186, "MEAN_MOTION_DOT": 4.934e-05, "MEAN_MOTION_DDOT": 0}, "tle": {"line1": "1 34857U 93036ACB 25356.71546296  .00004934  00000+0  10262-2 0  9991", "line2": "2 34857  74.0156  87.8006 0065411 210.4107 302.1039 14.58984962880463"}}, "geometry": {"type": "Point", "coordinates": [-80.69318521998595, -38.05866811954872]}}, {"type": "Feature", "properties": {"norad_id": 34859, "name": "COSMOS 2251 DEB", "group": "cosmos-2251-debris", "lat": -18.653124529690142, "lon": 142.83382731214286, "alt_km": 523.5863082717187, "timestamp": "2025-12-23T11:34:48.555832+00:00", "meta": {"OBJECT_NAME": "COSMOS 2251 DEB", "OBJECT_ID": "1993-036ACD", "EPOCH": "2025-12-20T00:39:03.765024", "MEAN_MOTION": 15.15832734, "ECCENTRICITY": 0.00020914, "INCLINATION": 74.0278, "RA_OF_ASC_NODE": 324.4843, "ARG_OF_PERICENTER": 20.5726, "MEAN_ANOMALY": 48.6407, "EPHEMERIS_TYPE": 0, "CLASSIFICATION_TYPE": "U", "NORAD_CAT_ID": 34859, "ELEMENT_SET_NO": 999, "REV_AT_EPOCH": 88469, "BSTAR": 0.0027292363, "MEAN_MOTION_DOT": 0.00052535, "MEAN_MOTION_DDOT": 0}, "tle": {"line1": "1 34859U 93036ACD 25354.02712691  .00052535  00000+0  27292-2 0  9990", "line2": "2 34859  74.0278 324.4843 0002091  20.5726  48.6407 15.15832734884694"}}, "geometry": {"type": "Point", "coordinates": [142.83382731214286, -18.653124529690142]}}, {"type": "Feature", "properties": {"norad_id": 34861, "name": "COSMOS 2251 DEB", "group": "cosmos-2251-debris", "lat": -22.59009772225743, "lon": 22.046288350851842, "alt_km": 557.8582760668505, "timestamp": "2025-12-23T11:34:48.555842+00:00", "meta": {"OBJECT_NAME": "COSMOS 2251 DEB", "OBJECT_ID": "1993-036ACF", "EPOCH": "2025-12-23T02:14:22.682112", "MEAN_MOTION": 15.03174162, "ECCENTRICITY": 0.0008243, "INCLINATION": 74.0166, "RA_OF_ASC_NODE": 29.6908, "ARG_OF_PERICENTER": 19.2129, "MEAN_ANOMALY": 12.2255, "EPHEMERIS_TYPE": 0, "CLASSIFICATION_TYPE": "U", "NORAD_CAT_ID": 34861, "ELEMENT_SET_NO": 999, "REV_AT_EPOCH": 88248, "BSTAR": 0.0025847, "MEAN_MOTION_DOT": 0.0003511, "MEAN_MOTION_DDOT": 0}, "tle": {"line1": "1 34861U 93036ACF 25357.09331808  .00035110  00000+0  25847-2 0  9994", "line2": "2 34861  74.0166  29.6908 0008243  19.2129  12.2255 15.03174162882480"}}, "geometry": {"type": "Point", "coordinates": [22.046288350851842, -22.59009772225743]}}, {"type": "Feature", "properties": {"norad_id": 34874, "name": "COSMOS 2251 DEB", "group": "cosmos-2251-debris", "lat": -53.88651065070311, "lon": -102.86822950400823, "alt_km": 811.3981227177546, "timestamp": "2025-12-23T11:34:48.555851+00:00", "meta": {"OBJECT_NAME": "COSMOS 2251 DEB", "OBJECT_ID": "1993-036ACM", "EPOCH": "2025-12-23T03:56:21.772032", "MEAN_MOTION": 14.36356167, "ECCENTRICITY": 0.0050518, "INCLINATION": 74.0394, "RA_OF_ASC_NODE": 54.6207, "ARG_OF_PERICENTER": 76.4855, "MEAN_ANOMALY": 314.8612, "EPHEMERIS_TYPE": 0, "CLASSIFICATION_TYPE": "U", "NORAD_CAT_ID": 34874, "ELEMENT_SET_NO": 999, "REV_AT_EPOCH": 87194, "BSTAR": 0.00080894, "MEAN_MOTION_DOT": 2.377e-05, "MEAN_MOTION_DDOT": 0}, "tle": {"line1": "1 34874U 93036ACM 25357.16414088  .00002377  00000+0  80894-3 0  9991", "line2": "2 34874  74.0394  54.6207 0050518  76.4855 314.8612 14.36356167871949"}}, "geometry": {"type": "Point", "coordinates": [-102.86822950400823, -53.88651065070311]}}]}